<?xml version="1.0" encoding="UTF-8"?>
<kml xmlns="http://www.opengis.net/kml/2.2">
<Document>
  <StyleMap id="m_label_0">
    <Pair><key>normal</key><styleUrl>#s_label_0</styleUrl></Pair>
    <Pair><key>highlight</key><styleUrl>#s_label_0_hl</styleUrl></Pair>
  </StyleMap>
  <Style id="s_label_0">
    <IconStyle>
      <scale>5</scale>
      <color>ff80f1e5</color>
      <Icon><href>http://maps.google.com/mapfiles/kml/shapes/donut.png</href></Icon>
    </IconStyle>
    <LabelStyle><color>fffcffff</color></LabelStyle>
  </Style>
  <Style id="s_label_0_hl">
    <IconStyle>
      <scale>5.90909</scale>
      <color>ff80f1e5</color>
      <Icon><href>http://maps.google.com/mapfiles/kml/shapes/donut.png</href></Icon>
    </IconStyle>
    <LabelStyle><color>fffcffff</color></LabelStyle>
  </Style>
  <StyleMap id="m_label_1">
    <Pair><key>normal</key><styleUrl>#s_label_1</styleUrl></Pair>
    <Pair><key>highlight</key><styleUrl>#s_label_1_hl</styleUrl></Pair>
  </StyleMap>
  <Style id="s_label_1">
    <IconStyle>
      <scale>5</scale>
      <color>ffcb789f</color>
      <Icon><href>http://maps.google.com/mapfiles/kml/shapes/donut.png</href></Icon>
    </IconStyle>
    <LabelStyle><color>fffcffff</color></LabelStyle>
  </Style>
  <Style id="s_label_1_hl">
    <IconStyle>
      <scale>5.90909</scale>
      <color>ffcb789f</color>
      <Icon><href>http://maps.google.com/mapfiles/kml/shapes/donut.png</href></Icon>
    </IconStyle>
    <LabelStyle><color>fffcffff</color></LabelStyle>
  </Style>
  <StyleMap id="m_label_2">
    <Pair><key>normal</key><styleUrl>#s_label_2</styleUrl></Pair>
    <Pair><key>highlight</key><styleUrl>#s_label_2_hl</styleUrl></Pair>
  </StyleMap>
  <Style id="s_label_2">
    <IconStyle>
      <scale>5</scale>
      <color>ff68f07c</color>
      <Icon><href>http://maps.google.com/mapfiles/kml/shapes/donut.png</href></Icon>
    </IconStyle>
    <LabelStyle><color>fffcffff</color></LabelStyle>
  </Style>
  <Style id="s_label_2_hl">
    <IconStyle>
      <scale>5.90909</scale>
      <color>ff68f07c</color>
      <Icon><href>http://maps.google.com/mapfiles/kml/shapes/donut.png</href></Icon>
    </IconStyle>
    <LabelStyle><color>fffcffff</color></LabelStyle>
  </Style>
  <StyleMap id="m_label_3">
    <Pair><key>normal</key><styleUrl>#s_label_3</styleUrl></Pair>
    <Pair><key>highlight</key><styleUrl>#s_label_3_hl</styleUrl></Pair>
  </StyleMap>
  <Style id="s_label_3">
    <IconStyle>
      <scale>5</scale>
      <color>ff8fd7de</color>
      <Icon><href>http://maps.google.com/mapfiles/kml/shapes/donut.png</href></Icon>
    </IconStyle>
    <LabelStyle><color>fffcffff</color></LabelStyle>
  </Style>
  <Style id="s_label_3_hl">
    <IconStyle>
      <scale>5.90909</scale>
      <color>ff8fd7de</color>
      <Icon><href>http://maps.google.com/mapfiles/kml/shapes/donut.png</href></Icon>
    </IconStyle>
    <LabelStyle><color>fffcffff</color></LabelStyle>
  </Style>
  <StyleMap id="m_label_4">
    <Pair><key>normal</key><styleUrl>#s_label_4</styleUrl></Pair>
    <Pair><key>highlight</key><styleUrl>#s_label_4_hl</styleUrl></Pair>
  </StyleMap>
  <Style id="s_label_4">
    <IconStyle>
      <scale>5</scale>
      <color>ffb9e5ca</color>
      <Icon><href>http://maps.google.com/mapfiles/kml/shapes/donut.png</href></Icon>
    </IconStyle>
    <LabelStyle><color>fffcffff</color></LabelStyle>
  </Style>
  <Style id="s_label_4_hl">
    <IconStyle>
      <scale>5.90909</scale>
      <color>ffb9e5ca</color>
      <Icon><href>http://maps.google.com/mapfiles/kml/shapes/donut.png</href></Icon>
    </IconStyle>
    <LabelStyle><color>fffcffff</color></LabelStyle>
  </Style>
  <StyleMap id="m_label_5">
    <Pair><key>normal</key><styleUrl>#s_label_5</styleUrl></Pair>
    <Pair><key>highlight</key><styleUrl>#s_label_5_hl</styleUrl></Pair>
  </StyleMap>
  <Style id="s_label_5">
    <IconStyle>
      <scale>5</scale>
      <color>ff6ad5f5</color>
      <Icon><href>http://maps.google.com/mapfiles/kml/shapes/donut.png</href></Icon>
    </IconStyle>
    <LabelStyle><color>fffcffff</color></LabelStyle>
  </Style>
  <Style id="s_label_5_hl">
    <IconStyle>
      <scale>5.90909</scale>
      <color>ff6ad5f5</color>
      <Icon><href>http://maps.google.com/mapfiles/kml/shapes/donut.png</href></Icon>
    </IconStyle>
    <LabelStyle><color>fffcffff</color></LabelStyle>
  </Style>
  <StyleMap id="m_label_6">
    <Pair><key>normal</key><styleUrl>#s_label_6</styleUrl></Pair>
    <Pair><key>highlight</key><styleUrl>#s_label_6_hl</styleUrl></Pair>
  </StyleMap>
  <Style id="s_label_6">
    <IconStyle>
      <scale>5</scale>
      <color>ff7f94bc</color>
      <Icon><href>http://maps.google.com/mapfiles/kml/shapes/donut.png</href></Icon>
    </IconStyle>
    <LabelStyle><color>fffcffff</color></LabelStyle>
  </Style>
  <Style id="s_label_6_hl">
    <IconStyle>
      <scale>5.90909</scale>
      <color>ff7f94bc</color>
      <Icon><href>http://maps.google.com/mapfiles/kml/shapes/donut.png</href></Icon>
    </IconStyle>
    <LabelStyle><color>fffcffff</color></LabelStyle>
  </Style>
  <StyleMap id="m_label_7">
    <Pair><key>normal</key><styleUrl>#s_label_7</styleUrl></Pair>
    <Pair><key>highlight</key><styleUrl>#s_label_7_hl</styleUrl></Pair>
  </StyleMap>
  <Style id="s_label_7">
    <IconStyle>
      <scale>5</scale>
      <color>ffce9fe9</color>
      <Icon><href>http://maps.google.com/mapfiles/kml/shapes/donut.png</href></Icon>
    </IconStyle>
    <LabelStyle><color>fffcffff</color></LabelStyle>
  </Style>
  <Style id="s_label_7_hl">
    <IconStyle>
      <scale>5.90909</scale>
      <color>ffce9fe9</color>
      <Icon><href>http://maps.google.com/mapfiles/kml/shapes/donut.png</href></Icon>
    </IconStyle>
    <LabelStyle><color>fffcffff</color></LabelStyle>
  </Style>
  <StyleMap id="m_label_8">
    <Pair><key>normal</key><styleUrl>#s_label_8</styleUrl></Pair>
    <Pair><key>highlight</key><styleUrl>#s_label_8_hl</styleUrl></Pair>
  </StyleMap>
  <Style id="s_label_8">
    <IconStyle>
      <scale>5</scale>
      <color>ff8fc5ca</color>
      <Icon><href>http://maps.google.com/mapfiles/kml/shapes/donut.png</href></Icon>
    </IconStyle>
    <LabelStyle><color>fffcffff</color></LabelStyle>
  </Style>
  <Style id="s_label_8_hl">
    <IconStyle>
      <scale>5.90909</scale>
      <color>ff8fc5ca</color>
      <Icon><href>http://maps.google.com/mapfiles/kml/shapes/donut.png</href></Icon>
    </IconStyle>
    <LabelStyle><color>fffcffff</color></LabelStyle>
  </Style>
  <StyleMap id="m_label_9">
    <Pair><key>normal</key><styleUrl>#s_label_9</styleUrl></Pair>
    <Pair><key>highlight</key><styleUrl>#s_label_9_hl</styleUrl></Pair>
  </StyleMap>
  <Style id="s_label_9">
    <IconStyle>
      <scale>5</scale>
      <color>ff7ce187</color>
      <Icon><href>http://maps.google.com/mapfiles/kml/shapes/donut.png</href></Icon>
    </IconStyle>
    <LabelStyle><color>fffcffff</color></LabelStyle>
  </Style>
  <Style id="s_label_9_hl">
    <IconStyle>
      <scale>5.90909</scale>
      <color>ff7ce187</color>
      <Icon><href>http://maps.google.com/mapfiles/kml/shapes/donut.png</href></Icon>
    </IconStyle>
    <LabelStyle><color>fffcffff</color></LabelStyle>
  </Style>
  <Folder>
    <name>Representative Tiles</name>
    <open>1</open>
    <Placemark>
      <name>0_0</name>
      <styleUrl>#m_label_0</styleUrl>
      <LookAt>
        <longitude>12.779638544052396</longitude>
        <latitude>45.43729234751487</latitude>
        <range>5000</range>
        <tilt>62</tilt>
        <heading>0</heading>
      </LookAt>
      <Point>
        <coordinates>12.779638544052396,45.43729234751487,0</coordinates>
      </Point>
    </Placemark>
    <Placemark>
      <name>0_1</name>
      <styleUrl>#m_label_0</styleUrl>
      <LookAt>
        <longitude>11.224555205061234</longitude>
        <latitude>54.614898164776626</latitude>
        <range>5000</range>
        <tilt>62</tilt>
        <heading>0</heading>
      </LookAt>
      <Point>
        <coordinates>11.224555205061234,54.614898164776626,0</coordinates>
      </Point>
    </Placemark>
    <Placemark>
      <name>0_2</name>
      <styleUrl>#m_label_0</styleUrl>
      <LookAt>
        <longitude>0.37238635193060027</longitude>
        <latitude>52.873526669716846</latitude>
        <range>5000</range>
        <tilt>62</tilt>
        <heading>0</heading>
      </LookAt>
      <Point>
        <coordinates>0.37238635193060027,52.873526669716846,0</coordinates>
      </Point>
    </Placemark>
    <Placemark>
      <name>1_0</name>
      <styleUrl>#m_label_1</styleUrl>
      <LookAt>
        <longitude>11.523491862284414</longitude>
        <latitude>54.56132783307056</latitude>
        <range>5000</range>
        <tilt>62</tilt>
        <heading>0</heading>
      </LookAt>
      <Point>
        <coordinates>11.523491862284414,54.56132783307056,0</coordinates>
      </Point>
    </Placemark>
    <Placemark>
      <name>1_1</name>
      <styleUrl>#m_label_1</styleUrl>
      <LookAt>
        <longitude>-0.03862651528992184</longitude>
        <latitude>52.502685495329935</latitude>
        <range>5000</range>
        <tilt>62</tilt>
        <heading>0</heading>
      </LookAt>
      <Point>
        <coordinates>-0.03862651528992184,52.502685495329935,0</coordinates>
      </Point>
    </Placemark>
    <Placemark>
      <name>1_2</name>
      <styleUrl>#m_label_1</styleUrl>
      <LookAt>
        <longitude>-1.2784609697733822</longitude>
        <latitude>46.25215418620381</latitude>
        <range>5000</range>
        <tilt>62</tilt>
        <heading>0</heading>
      </LookAt>
      <Point>
        <coordinates>-1.2784609697733822,46.25215418620381,0</coordinates>
      </Point>
    </Placemark>
    <Placemark>
      <name>2_0</name>
      <styleUrl>#m_label_2</styleUrl>
      <LookAt>
        <longitude>-1.0541282847771478</longitude>
        <latitude>53.88571594151472</latitude>
        <range>5000</range>
        <tilt>62</tilt>
        <heading>0</heading>
      </LookAt>
      <Point>
        <coordinates>-1.0541282847771478,53.88571594151472,0</coordinates>
      </Point>
    </Placemark>
    <Placemark>
      <name>2_1</name>
      <styleUrl>#m_label_2</styleUrl>
      <LookAt>
        <longitude>11.986443191374102</longitude>
        <latitude>52.76431825635316</latitude>
        <range>5000</range>
        <tilt>62</tilt>
        <heading>0</heading>
      </LookAt>
      <Point>
        <coordinates>11.986443191374102,52.76431825635316,0</coordinates>
      </Point>
    </Placemark>
    <Placemark>
      <name>2_2</name>
      <styleUrl>#m_label_2</styleUrl>
      <LookAt>
        <longitude>13.577323437179109</longitude>
        <latitude>53.82299451609525</latitude>
        <range>5000</range>
        <tilt>62</tilt>
        <heading>0</heading>
      </LookAt>
      <Point>
        <coordinates>13.577323437179109,53.82299451609525,0</coordinates>
      </Point>
    </Placemark>
    <Placemark>
      <name>3_0</name>
      <styleUrl>#m_label_3</styleUrl>
      <LookAt>
        <longitude>3.1497391660171004</longitude>
        <latitude>50.35801893038549</latitude>
        <range>5000</range>
        <tilt>62</tilt>
        <heading>0</heading>
      </LookAt>
      <Point>
        <coordinates>3.1497391660171004,50.35801893038549,0</coordinates>
      </Point>
    </Placemark>
    <Placemark>
      <name>3_1</name>
      <styleUrl>#m_label_3</styleUrl>
      <LookAt>
        <longitude>-2.4971250528647038</longitude>
        <latitude>53.160787509610635</latitude>
        <range>5000</range>
        <tilt>62</tilt>
        <heading>0</heading>
      </LookAt>
      <Point>
        <coordinates>-2.4971250528647038,53.160787509610635,0</coordinates>
      </Point>
    </Placemark>
    <Placemark>
      <name>3_2</name>
      <styleUrl>#m_label_3</styleUrl>
      <LookAt>
        <longitude>-0.457554596905293</longitude>
        <latitude>53.21391981818325</latitude>
        <range>5000</range>
        <tilt>62</tilt>
        <heading>0</heading>
      </LookAt>
      <Point>
        <coordinates>-0.457554596905293,53.21391981818325,0</coordinates>
      </Point>
    </Placemark>
    <Placemark>
      <name>4_0</name>
      <styleUrl>#m_label_4</styleUrl>
      <LookAt>
        <longitude>10.72057632059319</longitude>
        <latitude>45.26680542953614</latitude>
        <range>5000</range>
        <tilt>62</tilt>
        <heading>0</heading>
      </LookAt>
      <Point>
        <coordinates>10.72057632059319,45.26680542953614,0</coordinates>
      </Point>
    </Placemark>
    <Placemark>
      <name>4_1</name>
      <styleUrl>#m_label_4</styleUrl>
      <LookAt>
        <longitude>-0.813380905861905</longitude>
        <latitude>52.25029535761475</latitude>
        <range>5000</range>
        <tilt>62</tilt>
        <heading>0</heading>
      </LookAt>
      <Point>
        <coordinates>-0.813380905861905,52.25029535761475,0</coordinates>
      </Point>
    </Placemark>
    <Placemark>
      <name>4_2</name>
      <styleUrl>#m_label_4</styleUrl>
      <LookAt>
        <longitude>4.006430346064182</longitude>
        <latitude>43.60730359941612</latitude>
        <range>5000</range>
        <tilt>62</tilt>
        <heading>0</heading>
      </LookAt>
      <Point>
        <coordinates>4.006430346064182,43.60730359941612,0</coordinates>
      </Point>
    </Placemark>
    <Placemark>
      <name>5_0</name>
      <styleUrl>#m_label_5</styleUrl>
      <LookAt>
        <longitude>8.456170792111603</longitude>
        <latitude>44.90474125041758</latitude>
        <range>5000</range>
        <tilt>62</tilt>
        <heading>0</heading>
      </LookAt>
      <Point>
        <coordinates>8.456170792111603,44.90474125041758,0</coordinates>
      </Point>
    </Placemark>
    <Placemark>
      <name>5_1</name>
      <styleUrl>#m_label_5</styleUrl>
      <LookAt>
        <longitude>-7.2349679454947635</longitude>
        <latitude>53.92424266675472</latitude>
        <range>5000</range>
        <tilt>62</tilt>
        <heading>0</heading>
      </LookAt>
      <Point>
        <coordinates>-7.2349679454947635,53.92424266675472,0</coordinates>
      </Point>
    </Placemark>
    <Placemark>
      <name>5_2</name>
      <styleUrl>#m_label_5</styleUrl>
      <LookAt>
        <longitude>-8.524011219116712</longitude>
        <latitude>51.95372243324606</latitude>
        <range>5000</range>
        <tilt>62</tilt>
        <heading>0</heading>
      </LookAt>
      <Point>
        <coordinates>-8.524011219116712,51.95372243324606,0</coordinates>
      </Point>
    </Placemark>
    <Placemark>
      <name>6_0</name>
      <styleUrl>#m_label_6</styleUrl>
      <LookAt>
        <longitude>-2.2159050389920614</longitude>
        <latitude>42.40040679415134</latitude>
        <range>5000</range>
        <tilt>62</tilt>
        <heading>0</heading>
      </LookAt>
      <Point>
        <coordinates>-2.2159050389920614,42.40040679415134,0</coordinates>
      </Point>
    </Placemark>
    <Placemark>
      <name>6_1</name>
      <styleUrl>#m_label_6</styleUrl>
      <LookAt>
        <longitude>-0.5915415233520286</longitude>
        <latitude>48.897824028901795</latitude>
        <range>5000</range>
        <tilt>62</tilt>
        <heading>0</heading>
      </LookAt>
      <Point>
        <coordinates>-0.5915415233520286,48.897824028901795,0</coordinates>
      </Point>
    </Placemark>
    <Placemark>
      <name>6_2</name>
      <styleUrl>#m_label_6</styleUrl>
      <LookAt>
        <longitude>-9.00463074454081</longitude>
        <latitude>52.25871996413906</latitude>
        <range>5000</range>
        <tilt>62</tilt>
        <heading>0</heading>
      </LookAt>
      <Point>
        <coordinates>-9.00463074454081,52.25871996413906,0</coordinates>
      </Point>
    </Placemark>
    <Placemark>
      <name>7_0</name>
      <styleUrl>#m_label_7</styleUrl>
      <LookAt>
        <longitude>-3.021502392987439</longitude>
        <latitude>42.66492434614243</latitude>
        <range>5000</range>
        <tilt>62</tilt>
        <heading>0</heading>
      </LookAt>
      <Point>
        <coordinates>-3.021502392987439,42.66492434614243,0</coordinates>
      </Point>
    </Placemark>
    <Placemark>
      <name>7_1</name>
      <styleUrl>#m_label_7</styleUrl>
      <LookAt>
        <longitude>-8.924394066918243</longitude>
        <latitude>52.023132629591345</latitude>
        <range>5000</range>
        <tilt>62</tilt>
        <heading>0</heading>
      </LookAt>
      <Point>
        <coordinates>-8.924394066918243,52.023132629591345,0</coordinates>
      </Point>
    </Placemark>
    <Placemark>
      <name>7_2</name>
      <styleUrl>#m_label_7</styleUrl>
      <LookAt>
        <longitude>8.517578502164625</longitude>
        <latitude>44.586961315114074</latitude>
        <range>5000</range>
        <tilt>62</tilt>
        <heading>0</heading>
      </LookAt>
      <Point>
        <coordinates>8.517578502164625,44.586961315114074,0</coordinates>
      </Point>
    </Placemark>
    <Placemark>
      <name>8_0</name>
      <styleUrl>#m_label_8</styleUrl>
      <LookAt>
        <longitude>11.589310700874455</longitude>
        <latitude>44.00622023785623</latitude>
        <range>5000</range>
        <tilt>62</tilt>
        <heading>0</heading>
      </LookAt>
      <Point>
        <coordinates>11.589310700874455,44.00622023785623,0</coordinates>
      </Point>
    </Placemark>
    <Placemark>
      <name>8_1</name>
      <styleUrl>#m_label_8</styleUrl>
      <LookAt>
        <longitude>8.922042799680817</longitude>
        <latitude>44.51621873248344</latitude>
        <range>5000</range>
        <tilt>62</tilt>
        <heading>0</heading>
      </LookAt>
      <Point>
        <coordinates>8.922042799680817,44.51621873248344,0</coordinates>
      </Point>
    </Placemark>
    <Placemark>
      <name>8_2</name>
      <styleUrl>#m_label_8</styleUrl>
      <LookAt>
        <longitude>-3.8235881452134075</longitude>
        <latitude>52.65874116674103</latitude>
        <range>5000</range>
        <tilt>62</tilt>
        <heading>0</heading>
      </LookAt>
      <Point>
        <coordinates>-3.8235881452134075,52.65874116674103,0</coordinates>
      </Point>
    </Placemark>
    <Placemark>
      <name>9_0</name>
      <styleUrl>#m_label_9</styleUrl>
      <LookAt>
        <longitude>0.9308155203539624</longitude>
        <latitude>42.65555598825184</latitude>
        <range>5000</range>
        <tilt>62</tilt>
        <heading>0</heading>
      </LookAt>
      <Point>
        <coordinates>0.9308155203539624,42.65555598825184,0</coordinates>
      </Point>
    </Placemark>
    <Placemark>
      <name>9_1</name>
      <styleUrl>#m_label_9</styleUrl>
      <LookAt>
        <longitude>10.173292272975619</longitude>
        <latitude>44.04304127243194</latitude>
        <range>5000</range>
        <tilt>62</tilt>
        <heading>0</heading>
      </LookAt>
      <Point>
        <coordinates>10.173292272975619,44.04304127243194,0</coordinates>
      </Point>
    </Placemark>
    <Placemark>
      <name>9_2</name>
      <styleUrl>#m_label_9</styleUrl>
      <LookAt>
        <longitude>10.251493538040663</longitude>
        <latitude>46.35183714330757</latitude>
        <range>5000</range>
        <tilt>62</tilt>
        <heading>0</heading>
      </LookAt>
      <Point>
        <coordinates>10.251493538040663,46.35183714330757,0</coordinates>
      </Point>
    </Placemark>
  </Folder>
</Document>
</kml>